{
  "type": "FeatureCollection",
  "features": [
    {
      "type": "Feature",
      "properties": {
        "norad_id": 32181,
        "name": "FENGYUN 1C DEB",
        "group": "fengyun-1c-debris",
        "lat": -19.72645086527007,
        "lon": 94.75465287975452,
        "alt_km": 722.6656484057248,
        "timestamp": "2025-12-13T10:41:26.052001+00:00",
        "meta_object_name": "FENGYUN 1C DEB",
        "meta_object_id": "1999-025CUB",
        "meta_epoch": "2025-12-11T12:40:18.432768",
        "meta_mean_motion": 14.56014593,
        "meta_eccentricity": 0.00737728,
        "meta_inclination": 99.4727,
        "meta_ra_of_asc_node": 89.1481,
        "meta_arg_of_pericenter": 89.0035,
        "meta_mean_anomaly": 286.9682,
        "meta_ephemeris_type": 0,
        "meta_classification_type": "U",
        "meta_norad_cat_id": 32181,
        "meta_element_set_no": 999,
        "meta_rev_at_epoch": 96703,
        "meta_bstar": 0.0012142137,
        "meta_mean_motion_dot": 5.488e-05,
        "meta_mean_motion_ddot": 0,
        "tle_line1": "1 32181U 99025CUB 25345.52799112  .00005488  00000+0  12142-2 0  9991",
        "tle_line2": "2 32181  99.4727  89.1481 0073772  89.0035 286.9682 14.56014593967031"
      },
      "geometry": {
        "type": "Point",
        "coordinates": [
          94.75465287975452,
          -19.72645086527007
        ]
      }
    },
    {
      "type": "Feature",
      "properties": {
        "norad_id": 32183,
        "name": "FENGYUN 1C DEB",
        "group": "fengyun-1c-debris",
        "lat": 37.180271582664325,
        "lon": 31.945820026133806,
        "alt_km": 827.4071815761054,
        "timestamp": "2025-12-13T10:41:26.052011+00:00",
        "meta_object_name": "FENGYUN 1C DEB",
        "meta_object_id": "1999-025CUD",
        "meta_epoch": "2025-12-12T08:58:08.411808",
        "meta_mean_motion": 14.10083628,
        "meta_eccentricity": 0.00428392,
        "meta_inclination": 98.7133,
        "meta_ra_of_asc_node": 37.5876,
        "meta_arg_of_pericenter": 61.9677,
        "meta_mean_anomaly": 298.5817,
        "meta_ephemeris_type": 0,
        "meta_classification_type": "U",
        "meta_norad_cat_id": 32183,
        "meta_element_set_no": 999,
        "meta_rev_at_epoch": 72759,
        "meta_bstar": 0.00097760339,
        "meta_mean_motion_dot": 1.7e-05,
        "meta_mean_motion_ddot": 0,
        "tle_line1": "1 32183U 99025CUD 25346.37370847  .00001700  00000+0  97760-3 0  9990",
        "tle_line2": "2 32183  98.7133  37.5876 0042839  61.9677 298.5817 14.10083628727591"
      },
      "geometry": {
        "type": "Point",
        "coordinates": [
          31.945820026133806,
          37.180271582664325
        ]
      }
    },
    {
      "type": "Feature",
      "properties": {
        "norad_id": 32184,
        "name": "FENGYUN 1C DEB",
        "group": "fengyun-1c-debris",
        "lat": -30.742505003473877,
        "lon": -58.012128768853024,
        "alt_km": 474.1935747434027,
        "timestamp": "2025-12-13T10:41:26.052022+00:00",
        "meta_object_name": "FENGYUN 1C DEB",
        "meta_object_id": "1999-025CUE",
        "meta_epoch": "2025-12-11T20:26:33.329760",
        "meta_mean_motion": 15.43676436,
        "meta_eccentricity": 0.0071194,
        "meta_inclination": 98.1199,
        "meta_ra_of_asc_node": 125.0815,
        "meta_arg_of_pericenter": 351.2371,
        "meta_mean_anomaly": 8.7626,
        "meta_ephemeris_type": 0,
        "meta_classification_type": "U",
        "meta_norad_cat_id": 32184,
        "meta_element_set_no": 999,
        "meta_rev_at_epoch": 98390,
        "meta_bstar": 0.0018813,
        "meta_mean_motion_dot": 0.00094038,
        "meta_mean_motion_ddot": 0,
        "tle_line1": "1 32184U 99025CUE 25345.85177465  .00094038  00000+0  18813-2 0  9991",
        "tle_line2": "2 32184  98.1199 125.0815 0071194 351.2371   8.7626 15.43676436983906"
      },
      "geometry": {
        "type": "Point",
        "coordinates": [
          -58.012128768853024,
          -30.742505003473877
        ]
      }
    },
    {
      "type": "Feature",
      "properties": {
        "norad_id": 32185,
        "name": "FENGYUN 1C DEB",
        "group": "fengyun-1c-debris",
        "lat": -27.859724796443377,
        "lon": -161.43325442564446,
        "alt_km": 476.12602470993625,
        "timestamp": "2025-12-13T10:41:26.052032+00:00",
        "meta_object_name": "FENGYUN 1C DEB",
        "meta_object_id": "1999-025CUF",
        "meta_epoch": "2025-12-12T20:26:16.674432",
        "meta_mean_motion": 15.03513585,
        "meta_eccentricity": 0.01622146,
        "meta_inclination": 98.905,
        "meta_ra_of_asc_node": 193.1299,
        "meta_arg_of_pericenter": 14.9089,
        "meta_mean_anomaly": 345.6833,
        "meta_ephemeris_type": 0,
        "meta_classification_type": "U",
        "meta_norad_cat_id": 32185,
        "meta_element_set_no": 999,
        "meta_rev_at_epoch": 95017,
        "meta_bstar": 0.0041779735,
        "meta_mean_motion_dot": 0.00076781,
        "meta_mean_motion_ddot": 0,
        "tle_line1": "1 32185U 99025CUF 25346.85158188  .00076781  00000+0  41780-2 0  9998",
        "tle_line2": "2 32185  98.9050 193.1299 0162214  14.9089 345.6833 15.03513585950173"
      },
      "geometry": {
        "type": "Point",
        "coordinates": [
          -161.43325442564446,
          -27.859724796443377
        ]
      }
    },
    {
      "type": "Feature",
      "properties": {
        "norad_id": 32186,
        "name": "FENGYUN 1C DEB",
        "group": "fengyun-1c-debris",
        "lat": -56.76542365881852,
        "lon": 52.923504879683364,
        "alt_km": 1023.9645344403207,
        "timestamp": "2025-12-13T10:41:26.052042+00:00",
        "meta_object_name": "FENGYUN 1C DEB",
        "meta_object_id": "1999-025CUG",
        "meta_epoch": "2025-12-09T09:24:32.827968",
        "meta_mean_motion": 13.76498707,
        "meta_eccentricity": 0.02746783,
        "meta_inclination": 99.6097,
        "meta_ra_of_asc_node": 33.8435,
        "meta_arg_of_pericenter": 209.4403,
        "meta_mean_anomaly": 173.7978,
        "meta_ephemeris_type": 0,
        "meta_classification_type": "U",
        "meta_norad_cat_id": 32186,
        "meta_element_set_no": 999,
        "meta_rev_at_epoch": 62564,
        "meta_bstar": 0.0015629135,
        "meta_mean_motion_dot": 1.972e-05,
        "meta_mean_motion_ddot": 0,
        "tle_line1": "1 32186U 99025CUG 25343.39204662  .00001972  00000+0  15629-2 0  9997",
        "tle_line2": "2 32186  99.6097  33.8435 0274678 209.4403 173.7978 13.76498707625641"
      },
      "geometry": {
        "type": "Point",
        "coordinates": [
          52.923504879683364,
          -56.76542365881852
        ]
      }
    },
    {
      "type": "Feature",
      "properties": {
        "norad_id": 32187,
        "name": "FENGYUN 1C DEB",
        "group": "fengyun-1c-debris",
        "lat": 34.61292315509743,
        "lon": 59.734220913145045,
        "alt_km": 1133.2232803764418,
        "timestamp": "2025-12-13T10:41:26.052053+00:00",
        "meta_object_name": "FENGYUN 1C DEB",
        "meta_object_id": "1999-025CUH",
        "meta_epoch": "2025-12-12T04:25:44.596416",
        "meta_mean_motion": 13.50496102,
        "meta_eccentricity": 0.02944417,
        "meta_inclination": 99.5053,
        "meta_ra_of_asc_node": 65.1685,
        "meta_arg_of_pericenter": 147.3043,
        "meta_mean_anomaly": 244.1082,
        "meta_ephemeris_type": 0,
        "meta_classification_type": "U",
        "meta_norad_cat_id": 32187,
        "meta_element_set_no": 999,
        "meta_rev_at_epoch": 66251,
        "meta_bstar": 0.00072461752,
        "meta_mean_motion_dot": 5.68e-06,
        "meta_mean_motion_ddot": 0,
        "tle_line1": "1 32187U 99025CUH 25346.18454394  .00000568  00000+0  72462-3 0  9996",
        "tle_line2": "2 32187  99.5053  65.1685 0294441 147.3043 244.1082 13.50496102662513"
      },
      "geometry": {
        "type": "Point",
        "coordinates": [
          59.734220913145045,
          34.61292315509743
        ]
      }
    },
    {
      "type": "Feature",
      "properties": {
        "norad_id": 32191,
        "name": "FENGYUN 1C DEB",
        "group": "fengyun-1c-debris",
        "lat": -20.866533158529332,
        "lon": 46.89288545736222,
        "alt_km": 873.7788027430843,
        "timestamp": "2025-12-13T10:41:26.052063+00:00",
        "meta_object_name": "FENGYUN 1C DEB",
        "meta_object_id": "1999-025CUM",
        "meta_epoch": "2025-12-12T09:31:01.273728",
        "meta_mean_motion": 14.25192776,
        "meta_eccentricity": 0.0093788,
        "meta_inclination": 98.7073,
        "meta_ra_of_asc_node": 42.503,
        "meta_arg_of_pericenter": 187.4274,
        "meta_mean_anomaly": 172.5522,
        "meta_ephemeris_type": 0,
        "meta_classification_type": "U",
        "meta_norad_cat_id": 32191,
        "meta_element_set_no": 999,
        "meta_rev_at_epoch": 64496,
        "meta_bstar": 0.002278977,
        "meta_mean_motion_dot": 5.565e-05,
        "meta_mean_motion_ddot": 0,
        "tle_line1": "1 32191U 99025CUM 25346.39654252  .00005565  00000+0  22790-2 0  9999",
        "tle_line2": "2 32191  98.7073  42.5030 0093788 187.4274 172.5522 14.25192776644961"
      },
      "geometry": {
        "type": "Point",
        "coordinates": [
          46.89288545736222,
          -20.866533158529332
        ]
      }
    }
  ]
}